[{"OBJECT_NAME":"DMSP 5D-3 F16 (USA 172)","OBJECT_ID":"2003-048A","EPOCH":"2026-03-05T07:30:38.861856","MEAN_MOTION":14.14460119,"ECCENTRICITY":0.00081924,"INCLINATION":98.9997,"RA_OF_ASC_NODE":87.4071,"ARG_OF_PERICENTER":83.5516,"MEAN_ANOMALY":287.4072,"EPHEMERIS_TYPE":0,"CLASSIFICATION_TYPE":"U","NORAD_CAT_ID":28054,"ELEMENT_SET_NO":999,"REV_AT_EPOCH":15480,"BSTAR":0.00012521987,"MEAN_MOTION_DOT":1.95e-6,"MEAN_MOTION_DDOT":0},{"OBJECT_NAME":"METEOSAT-9 (MSG-2)","OBJECT_ID":"2005-049B","EPOCH":"2026-03-05T01:48:38.708928","MEAN_MOTION":1.00277671,"ECCENTRICITY":0.00017121,"INCLINATION":9.1265,"RA_OF_ASC_NODE":55.1755,"ARG_OF_PERICENTER":222.7266,"MEAN_ANOMALY":317.8188,"EPHEMERIS_TYPE":0,"CLASSIFICATION_TYPE":"U","NORAD_CAT_ID":28912,"ELEMENT_SET_NO":999,"REV_AT_EPOCH":595,"BSTAR":0,"MEAN_MOTION_DOT":1.18e-6,"MEAN_MOTION_DDOT":0},{"OBJECT_NAME":"DMSP 5D-3 F17 (USA 191)","OBJECT_ID":"2006-050A","EPOCH":"2026-03-05T07:03:05.820768","MEAN_MOTION":14.14961663,"ECCENTRICITY":0.00100111,"INCLINATION":98.7413,"RA_OF_ASC_NODE":72.9784,"ARG_OF_PERICENTER":359.5758,"MEAN_ANOMALY":0.5406,"EPHEMERIS_TYPE":0,"CLASSIFICATION_TYPE":"U","NORAD_CAT_ID":29522,"ELEMENT_SET_NO":999,"REV_AT_EPOCH":99772,"BSTAR":0.0001488557,"MEAN_MOTION_DOT":2.45e-6,"MEAN_MOTION_DDOT":0},{"OBJECT_NAME":"FENGYUN 3A","OBJECT_ID":"2008-026A","EPOCH":"2026-03-05T07:04:21.085536","MEAN_MOTION":14.19544776,"ECCENTRICITY":0.00097869,"INCLINATION":98.6794,"RA_OF_ASC_NODE":7.1251,"ARG_OF_PERICENTER":69.6133,"MEAN_ANOMALY":290.6093,"EPHEMERIS_TYPE":0,"CLASSIFICATION_TYPE":"U","NORAD_CAT_ID":32958,"ELEMENT_SET_NO":999,"REV_AT_EPOCH":92066,"BSTAR":9.6918181e-5,"MEAN_MOTION_DOT":1.61e-6,"MEAN_MOTION_DDOT":0},{"OBJECT_NAME":"GOES 14","OBJECT_ID":"2009-033A","EPOCH":"2026-03-05T06:23:46.517568","MEAN_MOTION":1.00124871,"ECCENTRICITY":0.00023017,"INCLINATION":1.4211,"RA_OF_ASC_NODE":84.4101,"ARG_OF_PERICENTER":300.2805,"MEAN_ANOMALY":75.6316,"EPHEMERIS_TYPE":0,"CLASSIFICATION_TYPE":"U","NORAD_CAT_ID":35491,"ELEMENT_SET_NO":999,"REV_AT_EPOCH":555,"BSTAR":0,"MEAN_MOTION_DOT":1.19e-6,"MEAN_MOTION_DDOT":0},{"OBJECT_NAME":"DMSP 5D-3 F18 (USA 210)","OBJECT_ID":"2009-057A","EPOCH":"2026-03-05T06:10:10.547328","MEAN_MOTION":14.1483268,"ECCENTRICITY":0.00108773,"INCLINATION":98.8958,"RA_OF_ASC_NODE":45.3014,"ARG_OF_PERICENTER":180.8537,"MEAN_ANOMALY":179.262,"EPHEMERIS_TYPE":0,"CLASSIFICATION_TYPE":"U","NORAD_CAT_ID":35951,"ELEMENT_SET_NO":999,"REV_AT_EPOCH":84489,"BSTAR":0.00020914831,"MEAN_MOTION_DOT":3.59e-6,"MEAN_MOTION_DDOT":0},{"OBJECT_NAME":"EWS-G2 (GOES 15)","OBJECT_ID":"2010-008A","EPOCH":"2026-03-05T04:29:38.736096","MEAN_MOTION":1.00269479,"ECCENTRICITY":0.0001932,"INCLINATION":1.0108,"RA_OF_ASC_NODE":85.1296,"ARG_OF_PERICENTER":19.6467,"MEAN_ANOMALY":189.0339,"EPHEMERIS_TYPE":0,"CLASSIFICATION_TYPE":"U","NORAD_CAT_ID":36411,"ELEMENT_SET_NO":999,"REV_AT_EPOCH":5859,"BSTAR":0,"MEAN_MOTION_DOT":1.3e-7,"MEAN_MOTION_DDOT":0},{"OBJECT_NAME":"COMS 1","OBJECT_ID":"2010-032A","EPOCH":"2026-03-04T21:41:38.536800","MEAN_MOTION":1.00272186,"ECCENTRICITY":0.00012005,"INCLINATION":4.5371,"RA_OF_ASC_NODE":76.8626,"ARG_OF_PERICENTER":285.2673,"MEAN_ANOMALY":254.0982,"EPHEMERIS_TYPE":0,"CLASSIFICATION_TYPE":"U","NORAD_CAT_ID":36744,"ELEMENT_SET_NO":999,"REV_AT_EPOCH":5004,"BSTAR":0,"MEAN_MOTION_DOT":-3.52e-6,"MEAN_MOTION_DDOT":0},{"OBJECT_NAME":"FENGYUN 3B","OBJECT_ID":"2010-059A","EPOCH":"2026-03-05T08:18:11.128896","MEAN_MOTION":14.14816298,"ECCENTRICITY":0.00230048,"INCLINATION":98.9772,"RA_OF_ASC_NODE":109.8553,"ARG_OF_PERICENTER":119.9403,"MEAN_ANOMALY":298.5268,"EPHEMERIS_TYPE":0,"CLASSIFICATION_TYPE":"U","NORAD_CAT_ID":37214,"ELEMENT_SET_NO":999,"REV_AT_EPOCH":79274,"BSTAR":0.00017732324,"MEAN_MOTION_DOT":2.98e-6,"MEAN_MOTION_DDOT":0},{"OBJECT_NAME":"SUOMI NPP","OBJECT_ID":"2011-061A","EPOCH":"2026-03-05T07:15:52.616448","MEAN_MOTION":14.19542164,"ECCENTRICITY":3.974e-5,"INCLINATION":98.7866,"RA_OF_ASC_NODE":5.9403,"ARG_OF_PERICENTER":272.7662,"MEAN_ANOMALY":87.3468,"EPHEMERIS_TYPE":0,"CLASSIFICATION_TYPE":"U","NORAD_CAT_ID":37849,"ELEMENT_SET_NO":999,"REV_AT_EPOCH":74370,"BSTAR":9.311509e-5,"MEAN_MOTION_DOT":1.52e-6,"MEAN_MOTION_DDOT":0},{"OBJECT_NAME":"METEOSAT-10 (MSG-3)","OBJECT_ID":"2012-035B","EPOCH":"2026-03-05T05:26:29.510880","MEAN_MOTION":1.00277685,"ECCENTRICITY":0.00025117,"INCLINATION":4.4256,"RA_OF_ASC_NODE":61.4601,"ARG_OF_PERICENTER":296.4567,"MEAN_ANOMALY":246.9694,"EPHEMERIS_TYPE":0,"CLASSIFICATION_TYPE":"U","NORAD_CAT_ID":38552,"ELEMENT_SET_NO":999,"REV_AT_EPOCH":4981,"BSTAR":0,"MEAN_MOTION_DOT":-1.1e-7,"MEAN_MOTION_DDOT":0},{"OBJECT_NAME":"METOP-B","OBJECT_ID":"2012-049A","EPOCH":"2026-03-05T05:19:03.998784","MEAN_MOTION":14.21443047,"ECCENTRICITY":0.00012009,"INCLINATION":98.6651,"RA_OF_ASC_NODE":117.7299,"ARG_OF_PERICENTER":290.4699,"MEAN_ANOMALY":69.6349,"EPHEMERIS_TYPE":0,"CLASSIFICATION_TYPE":"U","NORAD_CAT_ID":38771,"ELEMENT_SET_NO":999,"REV_AT_EPOCH":69849,"BSTAR":9.8496098e-5,"MEAN_MOTION_DOT":1.72e-6,"MEAN_MOTION_DDOT":0},{"OBJECT_NAME":"INSAT-3D","OBJECT_ID":"2013-038B","EPOCH":"2026-03-05T06:14:38.604192","MEAN_MOTION":1.00273114,"ECCENTRICITY":0.00017337,"INCLINATION":1.6576,"RA_OF_ASC_NODE":83.9021,"ARG_OF_PERICENTER":243.967,"MEAN_ANOMALY":58.2745,"EPHEMERIS_TYPE":0,"CLASSIFICATION_TYPE":"U","NORAD_CAT_ID":39216,"ELEMENT_SET_NO":999,"REV_AT_EPOCH":4603,"BSTAR":0,"MEAN_MOTION_DOT":-3.47e-6,"MEAN_MOTION_DDOT":0},{"OBJECT_NAME":"FENGYUN 3C","OBJECT_ID":"2013-052A","EPOCH":"2026-03-05T07:03:21.233664","MEAN_MOTION":14.15727322,"ECCENTRICITY":0.00140362,"INCLINATION":98.4885,"RA_OF_ASC_NODE":42.9955,"ARG_OF_PERICENTER":326.4964,"MEAN_ANOMALY":33.5322,"EPHEMERIS_TYPE":0,"CLASSIFICATION_TYPE":"U","NORAD_CAT_ID":39260,"ELEMENT_SET_NO":999,"REV_AT_EPOCH":64386,"BSTAR":0.00010176945,"MEAN_MOTION_DOT":1.58e-6,"MEAN_MOTION_DDOT":0},{"OBJECT_NAME":"METEOR-M 2","OBJECT_ID":"2014-037A","EPOCH":"2026-03-05T05:58:07.043232","MEAN_MOTION":14.21427262,"ECCENTRICITY":0.00056561,"INCLINATION":98.5017,"RA_OF_ASC_NODE":43.7237,"ARG_OF_PERICENTER":351.1559,"MEAN_ANOMALY":8.9518,"EPHEMERIS_TYPE":0,"CLASSIFICATION_TYPE":"U","NORAD_CAT_ID":40069,"ELEMENT_SET_NO":999,"REV_AT_EPOCH":60455,"BSTAR":0.00017373941,"MEAN_MOTION_DOT":3.38e-6,"MEAN_MOTION_DDOT":0},{"OBJECT_NAME":"HIMAWARI-8","OBJECT_ID":"2014-060A","EPOCH":"2026-03-05T05:58:38.637984","MEAN_MOTION":1.00271783,"ECCENTRICITY":7.465e-5,"INCLINATION":0.0283,"RA_OF_ASC_NODE":243.4839,"ARG_OF_PERICENTER":89.729,"MEAN_ANOMALY":60.0808,"EPHEMERIS_TYPE":0,"CLASSIFICATION_TYPE":"U","NORAD_CAT_ID":40267,"ELEMENT_SET_NO":999,"REV_AT_EPOCH":4171,"BSTAR":0,"MEAN_MOTION_DOT":-2.84e-6,"MEAN_MOTION_DDOT":0},{"OBJECT_NAME":"FENGYUN 2G","OBJECT_ID":"2014-090A","EPOCH":"2026-03-05T00:46:48.827712","MEAN_MOTION":1.00274286,"ECCENTRICITY":0.00018557,"INCLINATION":5.3757,"RA_OF_ASC_NODE":74.0796,"ARG_OF_PERICENTER":152.4589,"MEAN_ANOMALY":47.6186,"EPHEMERIS_TYPE":0,"CLASSIFICATION_TYPE":"U","NORAD_CAT_ID":40367,"ELEMENT_SET_NO":999,"REV_AT_EPOCH":4095,"BSTAR":0,"MEAN_MOTION_DOT":-3.1e-6,"MEAN_MOTION_DDOT":0}]
